[
    {
        "Altitude(m)": 571150.0374579084,
        "Argument of Periapsis(deg)": 0.006622991110713501,
        "Eccentricity": 0.0,
        "Inclination(deg)": 53.0,
        "Latitude(deg)": -51.35886847344111,
        "Longitude(deg)": -156.14988878823374,
        "Mean Anomaly(deg)": 257.3642928675776,
        "RAAN(deg)": 54.99014336852802,
        "Satellite Name": "Starlink Shell 1 257",
        "Satellite Number": 257,
        "Semi-Major Axis(m)": 6931778.249405717,
        "Time(s)": 190
    },
    {
        "Altitude(m)": 571216.5829577526,
        "Argument of Periapsis(deg)": 0.0069715695902247375,
        "Eccentricity": 0.0,
        "Inclination(deg)": 53.0,
        "Latitude(deg)": -51.528742308471486,
        "Longitude(deg)": -155.22916977658753,
        "Mean Anomaly(deg)": 257.9911240711343,
        "RAAN(deg)": 54.98962459845054,
        "Satellite Name": "Starlink Shell 1 257",
        "Satellite Number": 257,
        "Semi-Major Axis(m)": 6931778.249405717,
        "Time(s)": 200
    },
    {
        "Altitude(m)": 571279.8982840098,
        "Argument of Periapsis(deg)": 0.007320148069735974,
        "Eccentricity": 0.0,
        "Inclination(deg)": 53.0,
        "Latitude(deg)": -51.690667855289746,
        "Longitude(deg)": -154.30144574012562,
        "Mean Anomaly(deg)": 258.617955274691,
        "RAAN(deg)": 54.98910582837308,
        "Satellite Name": "Starlink Shell 1 257",
        "Satellite Number": 257,
        "Semi-Major Axis(m)": 6931778.249405717,
        "Time(s)": 210
    },
    {
        "Altitude(m)": 571339.9581894666,
        "Argument of Periapsis(deg)": 0.007668726549247212,
        "Eccentricity": 0.0,
        "Inclination(deg)": 53.0,
        "Latitude(deg)": -51.84454296139776,
        "Longitude(deg)": -153.36696778805384,
        "Mean Anomaly(deg)": 259.24478647824765,
        "RAAN(deg)": 54.9885870582956,
        "Satellite Name": "Starlink Shell 1 257",
        "Satellite Number": 257,
        "Semi-Major Axis(m)": 6931778.249405717,
        "Time(s)": 220
    },
    {
        "Altitude(m)": 571396.7387188508,
        "Argument of Periapsis(deg)": 0.00801730502875845,
        "Eccentricity": 0.0,
        "Inclination(deg)": 53.0,
        "Latitude(deg)": -51.99026895331754,
        "Longitude(deg)": -152.42600298147286,
        "Mean Anomaly(deg)": 259.8716176818045,
        "RAAN(deg)": 54.98806828821812,
        "Satellite Name": "Starlink Shell 1 257",
        "Satellite Number": 257,
        "Semi-Major Axis(m)": 6931778.249405717,
        "Time(s)": 230
    },
    {
        "Altitude(m)": 571450.2172191988,
        "Argument of Periapsis(deg)": 0.008365883508269684,
        "Eccentricity": 0.0,
        "Inclination(deg)": 53.0,
        "Latitude(deg)": -52.1277509167067,
        "Longitude(deg)": -151.4788335890241,
        "Mean Anomaly(deg)": 260.49844888536114,
        "RAAN(deg)": 54.98754951814066,
        "Satellite Name": "Starlink Shell 1 257",
        "Satellite Number": 257,
        "Semi-Major Axis(m)": 6931778.249405717,
        "Time(s)": 240
    },
    {
        "Altitude(m)": 571500.3723496875,
        "Argument of Periapsis(deg)": 0.008714461987780921,
        "Eccentricity": 0.0,
        "Inclination(deg)": 53.0,
        "Latitude(deg)": -52.256897973534286,
        "Longitude(deg)": -150.5257577725122,
        "Mean Anomaly(deg)": 261.12528008891786,
        "RAAN(deg)": 54.987030748063184,
        "Satellite Name": "Starlink Shell 1 257",
        "Satellite Number": 257,
        "Semi-Major Axis(m)": 6931778.249405717,
        "Time(s)": 250
    },
    {
        "Altitude(m)": 571547.1840908806,
        "Argument of Periapsis(deg)": 0.009063040467292158,
        "Eccentricity": 0.0,
        "Inclination(deg)": 53.0,
        "Latitude(deg)": -52.37762355464092,
        "Longitude(deg)": -149.56708867504923,
        "Mean Anomaly(deg)": 261.7521112924746,
        "RAAN(deg)": 54.98651197798571,
        "Satellite Name": "Starlink Shell 1 257",
        "Satellite Number": 257,
        "Semi-Major Axis(m)": 6931778.249405717,
        "Time(s)": 260
    },
    {
        "Altitude(m)": 571590.633753381,
        "Argument of Periapsis(deg)": 0.009411618946803396,
        "Eccentricity": 0.0,
        "Inclination(deg)": 53.0,
        "Latitude(deg)": -52.48984566588343,
        "Longitude(deg)": -148.60315342424622,
        "Mean Anomaly(deg)": 262.3789424960313,
        "RAAN(deg)": 54.985993207908244,
        "Satellite Name": "Starlink Shell 1 257",
        "Satellite Number": 257,
        "Semi-Major Axis(m)": 6931778.249405717,
        "Time(s)": 270
    },
    {
        "Altitude(m)": 571630.7039859709,
        "Argument of Periapsis(deg)": 0.009760197426314633,
        "Eccentricity": 0.0,
        "Inclination(deg)": 53.0,
        "Latitude(deg)": -52.593487146256706,
        "Longitude(deg)": -147.63429356192054,
        "Mean Anomaly(deg)": 263.005773699588,
        "RAAN(deg)": 54.98547443783076,
        "Satellite Name": "Starlink Shell 1 257",
        "Satellite Number": 257,
        "Semi-Major Axis(m)": 6931778.249405717,
        "Time(s)": 280
    },
    {
        "Altitude(m)": 571667.3787830865,
        "Argument of Periapsis(deg)": 0.01010877590582587,
        "Eccentricity": 0.0,
        "Inclination(deg)": 53.0,
        "Latitude(deg)": -52.6884759160007,
        "Longitude(deg)": -146.6608638772286,
        "Mean Anomaly(deg)": 263.6326049031447,
        "RAAN(deg)": 54.98495566775329,
        "Satellite Name": "Starlink Shell 1 257",
        "Satellite Number": 257,
        "Semi-Major Axis(m)": 6931778.249405717,
        "Time(s)": 290
    },
    {
        "Altitude(m)": 571700.6434917637,
        "Argument of Periapsis(deg)": 0.010457354385337106,
        "Eccentricity": 0.0,
        "Inclination(deg)": 53.0,
        "Latitude(deg)": -52.77474521310312,
        "Longitude(deg)": -145.6832311563363,
        "Mean Anomaly(deg)": 264.25943610670146,
        "RAAN(deg)": 54.98443689767582,
        "Satellite Name": "Starlink Shell 1 257",
        "Satellite Number": 257,
        "Semi-Major Axis(m)": 6931778.249405717,
        "Time(s)": 300
    },
    {
        "Altitude(m)": 571730.4848179786,
        "Argument of Periapsis(deg)": 0.010805932864848343,
        "Eccentricity": 0.0,
        "Inclination(deg)": 53.0,
        "Latitude(deg)": -52.852233816389194,
        "Longitude(deg)": -144.70177436470513,
        "Mean Anomaly(deg)": 264.8862673102582,
        "RAAN(deg)": 54.98391812759834,
        "Satellite Name": "Starlink Shell 1 257",
        "Satellite Number": 257,
        "Semi-Major Axis(m)": 6931778.249405717,
        "Time(s)": 310
    },
    {
        "Altitude(m)": 571756.8908324027,
        "Argument of Periapsis(deg)": 0.01115451134435958,
        "Eccentricity": 0.0,
        "Inclination(deg)": 53.0,
        "Latitude(deg)": -52.920886253538505,
        "Longitude(deg)": -143.7168832396518,
        "Mean Anomaly(deg)": 265.51309851381484,
        "RAAN(deg)": 54.983399357520874,
        "Satellite Name": "Starlink Shell 1 257",
        "Satellite Number": 257,
        "Semi-Major Axis(m)": 6931778.249405717,
        "Time(s)": 320
    },
    {
        "Altitude(m)": 571779.8509755689,
        "Argument of Periapsis(deg)": 0.011503089823870818,
        "Eccentricity": 0.0,
        "Inclination(deg)": 53.0,
        "Latitude(deg)": -52.98065299242236,
        "Longitude(deg)": -142.7289568104797,
        "Mean Anomaly(deg)": 266.1399297173716,
        "RAAN(deg)": 54.9828805874434,
        "Satellite Name": "Starlink Shell 1 257",
        "Satellite Number": 257,
        "Semi-Major Axis(m)": 6931778.249405717,
        "Time(s)": 330
    },
    {
        "Altitude(m)": 571799.3560624311,
        "Argument of Periapsis(deg)": 0.011851668303382053,
        "Eccentricity": 0.0,
        "Inclination(deg)": 53.0,
        "Latitude(deg)": -53.031490614251105,
        "Longitude(deg)": -141.73840336436172,
        "Mean Anomaly(deg)": 266.7667609209283,
        "RAAN(deg)": 54.98236181736593,
        "Satellite Name": "Starlink Shell 1 257",
        "Satellite Number": 257,
        "Semi-Major Axis(m)": 6931778.249405717,
        "Time(s)": 340
    },
    {
        "Altitude(m)": 571815.3982863592,
        "Argument of Periapsis(deg)": 0.012200246782893292,
        "Eccentricity": 0.0,
        "Inclination(deg)": 53.0,
        "Latitude(deg)": -53.073361967145985,
        "Longitude(deg)": -140.74563883836043,
        "Mean Anomaly(deg)": 267.393592124485,
        "RAAN(deg)": 54.98184304728846,
        "Satellite Name": "Starlink Shell 1 257",
        "Satellite Number": 257,
        "Semi-Major Axis(m)": 6931778.249405717,
        "Time(s)": 350
    },
    {
        "Altitude(m)": 571827.9712224918,
        "Argument of Periapsis(deg)": 0.012548825262404526,
        "Eccentricity": 0.0,
        "Inclination(deg)": 53.0,
        "Latitude(deg)": -53.10623629887791,
        "Longitude(deg)": -139.75108515738467,
        "Mean Anomaly(deg)": 268.0204233280417,
        "RAAN(deg)": 54.98132427721097,
        "Satellite Name": "Starlink Shell 1 257",
        "Satellite Number": 257,
        "Semi-Major Axis(m)": 6931778.249405717,
        "Time(s)": 360
    },
    {
        "Altitude(m)": 571837.069830535,
        "Argument of Periapsis(deg)": 0.012897403741915765,
        "Eccentricity": 0.0,
        "Inclination(deg)": 53.0,
        "Latitude(deg)": -53.13008936767124,
        "Longitude(deg)": -138.75517003857547,
        "Mean Anomaly(deg)": 268.64725453159843,
        "RAAN(deg)": 54.98080550713351,
        "Satellite Name": "Starlink Shell 1 257",
        "Satellite Number": 257,
        "Semi-Major Axis(m)": 6931778.249405717,
        "Time(s)": 370
    }
]